BEIDOU-3 M16            
1 43648U 18078B   22231.47332781 -.00000122  00000+0  00000+0 0  9998
2 43648  55.0972 348.4409 0003797  33.1939 329.5844  1.86232283 26155
BEIDOU-3 G1             
1 43683U 18085A   22231.53010498 -.00000284  00000+0  00000+0 0  9999
2 43683   0.9566 156.0296 0004482  17.0145 125.7131  1.00272317 14049
BEIDOU-3 M17            
1 43706U 18093A   22231.08308347  .00000072  00000+0  00000+0 0  9991
2 43706  54.3438 229.8291 0011241 273.6682  86.2126  1.86232082 25504
BEIDOU-3 M18            
1 43707U 18093B   22231.60269402  .00000075  00000+0  00000+0 0  9991
2 43707  54.3432 229.8027 0009426 294.4971 145.0327  1.86232215 25505
BEIDOU-3 IGSO-1         
1 44204U 19023A   22231.28291793 -.00000205  00000+0  00000+0 0  9996
2 44204  56.6496  52.2953 0022853 188.3424 307.2966  1.00290480 12345
BEIDOU-2 G8             
1 44231U 19027A   22231.60565909 -.00000253  00000+0  00000+0 0  9992
2 44231   1.0099  78.5286 0005735 112.9338 138.9979  1.00274646 12052
BEIDOU-3 IGSO-2         
1 44337U 19035A   22231.23861449 -.00000136  00000+0  00000+0 0  9995
2 44337  55.1226 171.1639 0026045 193.4857 167.8310  1.00285235 11684
BEIDOU-3 M23            
1 44542U 19061A   22231.01921859  .00000072  00000+0  00000+0 0  9998
2 44542  54.5705 229.9859 0008679 325.5804  34.3729  1.86231527 19753
BEIDOU-3 M24            
1 44543U 19061B   22231.41734519  .00000074  00000+0  00000+0 0  9990
2 44543  54.5674 229.9420 0006361 307.3992 230.8708  1.86231782 19758
BEIDOU-3 IGSO-3         
1 44709U 19073A   22231.34720816 -.00000180  00000+0  10000-3 0  9998
2 44709  57.1624 295.7348 0027384 179.9066  95.9704  1.00289461 10423
BEIDOU-3 M21            
1 44793U 19078A   22231.43932442 -.00000122  00000+0  10000-3 0  9992
2 44793  54.9499 348.4503 0005620  22.9991   3.1066  1.86232322 18623
BEIDOU-3 M22            
1 44794U 19078B   22231.54679300 -.00000122  00000+0  00000+0 0  9991
2 44794  54.9240 348.4367 0003556  21.4157 348.5171  1.86232779 18629
BEIDOU-3 M19            
1 44864U 19090A   22231.47991751 -.00000058  00000+0  00000+0 0  9990
2 44864  55.4485 109.4448 0016268 273.2996 246.2195  1.86231998 18207
BEIDOU-3 M20            
1 44865U 19090B   22231.37185225 -.00000058  00000+0  00000+0 0  9991
2 44865  55.4509 109.4805 0014666 288.4444 248.4780  1.86231958 18174
BEIDOU-3 G2             
1 45344U 20017A   22231.51788722 -.00000145  00000+0  00000+0 0  9999
2 45344   2.0303 355.2093 0004694 140.3736  98.7267  1.00272131  9245
BEIDOU-3 G3             
1 45807U 20040A   22231.52399124 -.00000358  00000+0  00000+0 0  9990
2 45807   1.3019 305.0706 0007398 329.1024 352.8427  1.00268864  8058
